[{"OBJECT_NAME":"STARLINK-36772","OBJECT_ID":"2026-026A","EPOCH":"2026-03-09T20:00:00.999360","MEAN_MOTION":15.46605854,"ECCENTRICITY":0.0001272,"INCLINATION":97.2843,"RA_OF_ASC_NODE":123.3459,"ARG_OF_PERICENTER":71.9244,"MEAN_ANOMALY":233.5018,"EPHEMERIS_TYPE":0,"CLASSIFICATION_TYPE":"U","NORAD_CAT_ID":67721,"ELEMENT_SET_NO":999,"REV_AT_EPOCH":533,"BSTAR":-0.047262,"MEAN_MOTION_DOT":-0.02088057,"MEAN_MOTION_DDOT":0},{"OBJECT_NAME":"STARLINK-36796","OBJECT_ID":"2026-026B","EPOCH":"2026-03-09T20:00:00.999360","MEAN_MOTION":15.45579239,"ECCENTRICITY":0.0001624,"INCLINATION":97.2845,"RA_OF_ASC_NODE":123.3395,"ARG_OF_PERICENTER":87.4883,"MEAN_ANOMALY":199.4864,"EPHEMERIS_TYPE":0,"CLASSIFICATION_TYPE":"U","NORAD_CAT_ID":67722,"ELEMENT_SET_NO":999,"REV_AT_EPOCH":533,"BSTAR":-0.044813,"MEAN_MOTION_DOT":-0.01929256,"MEAN_MOTION_DDOT":0},{"OBJECT_NAME":"STARLINK-36369","OBJECT_ID":"2026-026C","EPOCH":"2026-03-09T20:00:00.999360","MEAN_MOTION":15.4893751,"ECCENTRICITY":0.0001773,"INCLINATION":97.2846,"RA_OF_ASC_NODE":123.3475,"ARG_OF_PERICENTER":90.0483,"MEAN_ANOMALY":219.1997,"EPHEMERIS_TYPE":0,"CLASSIFICATION_TYPE":"U","NORAD_CAT_ID":67723,"ELEMENT_SET_NO":999,"REV_AT_EPOCH":533,"BSTAR":-0.041722,"MEAN_MOTION_DOT":-0.02009428,"MEAN_MOTION_DDOT":0},{"OBJECT_NAME":"STARLINK-36752","OBJECT_ID":"2026-026D","EPOCH":"2026-03-09T20:00:00.999360","MEAN_MOTION":15.46883205,"ECCENTRICITY":0.0001596,"INCLINATION":97.2839,"RA_OF_ASC_NODE":123.3658,"ARG_OF_PERICENTER":92.8555,"MEAN_ANOMALY":256.6306,"EPHEMERIS_TYPE":0,"CLASSIFICATION_TYPE":"U","NORAD_CAT_ID":67724,"ELEMENT_SET_NO":999,"REV_AT_EPOCH":533,"BSTAR":-0.044102,"MEAN_MOTION_DOT":-0.01980162,"MEAN_MOTION_DDOT":0},{"OBJECT_NAME":"STARLINK-36754","OBJECT_ID":"2026-026E","EPOCH":"2026-03-09T20:00:00.999360","MEAN_MOTION":15.47879996,"ECCENTRICITY":0.0001906,"INCLINATION":97.2846,"RA_OF_ASC_NODE":123.3385,"ARG_OF_PERICENTER":109.9951,"MEAN_ANOMALY":177.2983,"EPHEMERIS_TYPE":0,"CLASSIFICATION_TYPE":"U","NORAD_CAT_ID":67725,"ELEMENT_SET_NO":999,"REV_AT_EPOCH":533,"BSTAR":-0.041612,"MEAN_MOTION_DOT":-0.01939178,"MEAN_MOTION_DDOT":0},{"OBJECT_NAME":"STARLINK-36755","OBJECT_ID":"2026-026F","EPOCH":"2026-03-09T20:00:00.999360","MEAN_MOTION":15.49167123,"ECCENTRICITY":0.0001453,"INCLINATION":97.2852,"RA_OF_ASC_NODE":123.3149,"ARG_OF_PERICENTER":83.8094,"MEAN_ANOMALY":145.8201,"EPHEMERIS_TYPE":0,"CLASSIFICATION_TYPE":"U","NORAD_CAT_ID":67726,"ELEMENT_SET_NO":999,"REV_AT_EPOCH":533,"BSTAR":0.0002361,"MEAN_MOTION_DOT":0.00012762,"MEAN_MOTION_DDOT":0},{"OBJECT_NAME":"STARLINK-36741","OBJECT_ID":"2026-026G","EPOCH":"2026-03-09T20:00:00.999360","MEAN_MOTION":15.49612739,"ECCENTRICITY":0.0001585,"INCLINATION":97.2847,"RA_OF_ASC_NODE":123.3296,"ARG_OF_PERICENTER":82.9186,"MEAN_ANOMALY":181.962,"EPHEMERIS_TYPE":0,"CLASSIFICATION_TYPE":"U","NORAD_CAT_ID":67727,"ELEMENT_SET_NO":999,"REV_AT_EPOCH":533,"BSTAR":-0.032238,"MEAN_MOTION_DOT":-0.01601671,"MEAN_MOTION_DDOT":0},{"OBJECT_NAME":"STARLINK-36757","OBJECT_ID":"2026-026H","EPOCH":"2026-03-09T20:00:00.999360","MEAN_MOTION":15.48136048,"ECCENTRICITY":0.0001744,"INCLINATION":97.2849,"RA_OF_ASC_NODE":123.3828,"ARG_OF_PERICENTER":76.8218,"MEAN_ANOMALY":315.104,"EPHEMERIS_TYPE":0,"CLASSIFICATION_TYPE":"U","NORAD_CAT_ID":67728,"ELEMENT_SET_NO":999,"REV_AT_EPOCH":533,"BSTAR":-0.045161,"MEAN_MOTION_DOT":-0.02102982,"MEAN_MOTION_DDOT":0},{"OBJECT_NAME":"STARLINK-36751","OBJECT_ID":"2026-026J","EPOCH":"2026-03-09T20:00:00.999360","MEAN_MOTION":15.48173998,"ECCENTRICITY":0.00018,"INCLINATION":97.2848,"RA_OF_ASC_NODE":123.3951,"ARG_OF_PERICENTER":66.9495,"MEAN_ANOMALY":354.4151,"EPHEMERIS_TYPE":0,"CLASSIFICATION_TYPE":"U","NORAD_CAT_ID":67729,"ELEMENT_SET_NO":999,"REV_AT_EPOCH":533,"BSTAR":-0.045771,"MEAN_MOTION_DOT":-0.02130725,"MEAN_MOTION_DDOT":0},{"OBJECT_NAME":"STARLINK-36747","OBJECT_ID":"2026-026K","EPOCH":"2026-03-09T20:00:00.999360","MEAN_MOTION":15.4806619,"ECCENTRICITY":0.0001684,"INCLINATION":97.285,"RA_OF_ASC_NODE":123.3896,"ARG_OF_PERICENTER":59.0855,"MEAN_ANOMALY":350.9058,"EPHEMERIS_TYPE":0,"CLASSIFICATION_TYPE":"U","NORAD_CAT_ID":67730,"ELEMENT_SET_NO":999,"REV_AT_EPOCH":533,"BSTAR":-0.046618,"MEAN_MOTION_DOT":-0.02158333,"MEAN_MOTION_DDOT":0},{"OBJECT_NAME":"STARLINK-36315","OBJECT_ID":"2026-026L","EPOCH":"2026-03-09T20:00:00.999360","MEAN_MOTION":15.48449947,"ECCENTRICITY":0.0001352,"INCLINATION":97.2853,"RA_OF_ASC_NODE":123.4035,"ARG_OF_PERICENTER":86.471,"MEAN_ANOMALY":345.4519,"EPHEMERIS_TYPE":0,"CLASSIFICATION_TYPE":"U","NORAD_CAT_ID":67731,"ELEMENT_SET_NO":999,"REV_AT_EPOCH":533,"BSTAR":-0.041457,"MEAN_MOTION_DOT":-0.01967333,"MEAN_MOTION_DDOT":0},{"OBJECT_NAME":"STARLINK-36260","OBJECT_ID":"2026-026M","EPOCH":"2026-03-09T20:00:00.999360","MEAN_MOTION":15.48539702,"ECCENTRICITY":0.0001642,"INCLINATION":97.2854,"RA_OF_ASC_NODE":123.4107,"ARG_OF_PERICENTER":71.9532,"MEAN_ANOMALY":17.026,"EPHEMERIS_TYPE":0,"CLASSIFICATION_TYPE":"U","NORAD_CAT_ID":67732,"ELEMENT_SET_NO":999,"REV_AT_EPOCH":533,"BSTAR":-0.040881,"MEAN_MOTION_DOT":-0.01948456,"MEAN_MOTION_DDOT":0},{"OBJECT_NAME":"STARLINK-36746","OBJECT_ID":"2026-026N","EPOCH":"2026-03-09T17:17:20.738688","MEAN_MOTION":15.4925536,"ECCENTRICITY":9.16e-5,"INCLINATION":97.2846,"RA_OF_ASC_NODE":123.0634,"ARG_OF_PERICENTER":71.5867,"MEAN_ANOMALY":288.5483,"EPHEMERIS_TYPE":0,"CLASSIFICATION_TYPE":"U","NORAD_CAT_ID":67733,"ELEMENT_SET_NO":999,"REV_AT_EPOCH":411,"BSTAR":0.0019411,"MEAN_MOTION_DOT":0.00107174,"MEAN_MOTION_DDOT":0},{"OBJECT_NAME":"STARLINK-36749","OBJECT_ID":"2026-026P","EPOCH":"2026-03-09T20:00:00.999360","MEAN_MOTION":15.4916211,"ECCENTRICITY":0.0001612,"INCLINATION":97.285,"RA_OF_ASC_NODE":123.3421,"ARG_OF_PERICENTER":87.8706,"MEAN_ANOMALY":203.6827,"EPHEMERIS_TYPE":0,"CLASSIFICATION_TYPE":"U","NORAD_CAT_ID":67734,"ELEMENT_SET_NO":999,"REV_AT_EPOCH":533,"BSTAR":0.00041653,"MEAN_MOTION_DOT":0.00022607,"MEAN_MOTION_DDOT":0},{"OBJECT_NAME":"STARLINK-36691","OBJECT_ID":"2026-026Q","EPOCH":"2026-03-09T20:00:00.999360","MEAN_MOTION":15.49015016,"ECCENTRICITY":0.0001963,"INCLINATION":97.2847,"RA_OF_ASC_NODE":123.4339,"ARG_OF_PERICENTER":69.8185,"MEAN_ANOMALY":72.9421,"EPHEMERIS_TYPE":0,"CLASSIFICATION_TYPE":"U","NORAD_CAT_ID":67735,"ELEMENT_SET_NO":999,"REV_AT_EPOCH":547,"BSTAR":-0.040372,"MEAN_MOTION_DOT":-0.01955961,"MEAN_MOTION_DDOT":0},{"OBJECT_NAME":"STARLINK-36317","OBJECT_ID":"2026-026R","EPOCH":"2026-03-09T20:00:00.999360","MEAN_MOTION":15.49107308,"ECCENTRICITY":0.0001632,"INCLINATION":97.2852,"RA_OF_ASC_NODE":123.4272,"ARG_OF_PERICENTER":65.472,"MEAN_ANOMALY":60.9577,"EPHEMERIS_TYPE":0,"CLASSIFICATION_TYPE":"U","NORAD_CAT_ID":67736,"ELEMENT_SET_NO":999,"REV_AT_EPOCH":533,"BSTAR":-0.039822,"MEAN_MOTION_DOT":-0.01937504,"MEAN_MOTION_DDOT":0},{"OBJECT_NAME":"STARLINK-36330","OBJECT_ID":"2026-026S","EPOCH":"2026-03-09T20:00:00.999360","MEAN_MOTION":15.49418062,"ECCENTRICITY":0.0001827,"INCLINATION":97.2847,"RA_OF_ASC_NODE":123.4384,"ARG_OF_PERICENTER":76.5981,"MEAN_ANOMALY":75.0687,"EPHEMERIS_TYPE":0,"CLASSIFICATION_TYPE":"U","NORAD_CAT_ID":67737,"ELEMENT_SET_NO":999,"REV_AT_EPOCH":533,"BSTAR":-0.038023,"MEAN_MOTION_DOT":-0.01844927,"MEAN_MOTION_DDOT":0}]
